{"type": "FeatureCollection", "features": [ {"type": "Feature", "properties": {"norad_id": 67131, "name": "ZIYUAN 3-04 (ZY 3-04)", "group": "last-30-days", "lat": 82.44053349029066, "lon": -12.305234011686576, "alt_km": 494.3817546186765, "timestamp": "2025-12-22T05:49:02.189993+00:00", "meta": {"OBJECT_NAME": "ZIYUAN 3-04 (ZY 3-04)", "OBJECT_ID": "2025-300A", "EPOCH": "2025-12-21T18:22:34.187808", "MEAN_MOTION": 15.21179479, "ECCENTRICITY": 0.0002762, "INCLINATION": 97.4922, "RA_OF_ASC_NODE": 69.8294, "ARG_OF_PERICENTER": 167.6923, "MEAN_ANOMALY": 192.438, "EPHEMERIS_TYPE": 0, "CLASSIFICATION_TYPE": "U", "NORAD_CAT_ID": 67131, "ELEMENT_SET_NO": 999, "REV_AT_EPOCH": 86, "BSTAR": 6.577e-05, "MEAN_MOTION_DOT": 1.396e-05, "MEAN_MOTION_DDOT": 0}, "tle": {"line1": "1 67131U 25300A   25355.76567347  .00001396  00000+0  65770-4 0  9990", "line2": "2 67131  97.4922  69.8294 0002762 167.6923 192.4380 15.21179479   869"}}, "geometry": {"type": "Point", "coordinates": [-12.305234011686576, 82.44053349029066]}}, {"type": "Feature", "properties": {"norad_id": 67132, "name": "CZ-4B R/B", "group": "last-30-days", "lat": -81.6801156860038, "lon": -174.41098423316532, "alt_km": 380.189908328769, "timestamp": "2025-12-22T05:49:02.190003+00:00", "meta": {"OBJECT_NAME": "CZ-4B R/B", "OBJECT_ID": "2025-300B", "EPOCH": "2025-12-18T16:13:04.609056", "MEAN_MOTION": 15.63831828, "ECCENTRICITY": 0.01741973, "INCLINATION": 97.5563, "RA_OF_ASC_NODE": 66.966, "ARG_OF_PERICENTER": 9.3582, "MEAN_ANOMALY": 351.0851, "EPHEMERIS_TYPE": 0, "CLASSIFICATION_TYPE": "U", "NORAD_CAT_ID": 67132, "ELEMENT_SET_NO": 999, "REV_AT_EPOCH": 40, "BSTAR": 0.00019566238, "MEAN_MOTION_DOT": 0.00040543, "MEAN_MOTION_DDOT": 2.652968e-06}, "tle": {"line1": "1 67132U 25300B   25352.67574779  .00040543  26530-5  19566-3 0  9995", "line2": "2 67132  97.5563  66.9660 0174197   9.3582 351.0851 15.63831828   407"}}, "geometry": {"type": "Point", "coordinates": [-174.41098423316532, -81.6801156860038]}}, {"type": "Feature", "properties": {"norad_id": 67160, "name": "GALILEO A", "group": "last-30-days", "lat": 23.820131802828534, "lon": 125.65074934545669, "alt_km": 22962.88611807606, "timestamp": "2025-12-22T05:49:02.190015+00:00", "meta": {"OBJECT_NAME": "GALILEO A", "OBJECT_ID": "2025-302A", "EPOCH": "2025-12-18T03:30:19.486368", "MEAN_MOTION": 1.72906186, "ECCENTRICITY": 0.00084238, "INCLINATION": 54.2406, "RA_OF_ASC_NODE": 107.2544, "ARG_OF_PERICENTER": 237.6458, "MEAN_ANOMALY": 122.2317, "EPHEMERIS_TYPE": 0, "CLASSIFICATION_TYPE": "U", "NORAD_CAT_ID": 67160, "ELEMENT_SET_NO": 999, "REV_AT_EPOCH": 2, "BSTAR": 0, "MEAN_MOTION_DOT": -7e-08, "MEAN_MOTION_DDOT": 0}, "tle": {"line1": "1 67160U 25302A   25352.14605887 -.00000007  00000+0  00000+0 0  9994", "line2": "2 67160  54.2406 107.2544 0008423 237.6458 122.2317  1.72906186    28"}}, "geometry": {"type": "Point", "coordinates": [125.65074934545669, 23.820131802828534]}}, {"type": "Feature", "properties": {"norad_id": 67161, "name": "GALILEO B", "group": "last-30-days", "lat": 24.71220233885106, "lon": 126.4488138730124, "alt_km": 22943.131070121315, "timestamp": "2025-12-22T05:49:02.190026+00:00", "meta": {"OBJECT_NAME": "GALILEO B", "OBJECT_ID": "2025-302B", "EPOCH": "2025-12-19T07:14:53.290752", "MEAN_MOTION": 1.72972192, "ECCENTRICITY": 0.00045866, "INCLINATION": 54.2272, "RA_OF_ASC_NODE": 107.1916, "ARG_OF_PERICENTER": 255.0301, "MEAN_ANOMALY": 104.8802, "EPHEMERIS_TYPE": 0, "CLASSIFICATION_TYPE": "U", "NORAD_CAT_ID": 67161, "ELEMENT_SET_NO": 999, "REV_AT_EPOCH": 5, "BSTAR": 0, "MEAN_MOTION_DOT": -5e-08, "MEAN_MOTION_DDOT": 0}, "tle": {"line1": "1 67161U 25302B   25353.30200568 -.00000005  00000+0  00000+0 0  9999", "line2": "2 67161  54.2272 107.1916 0004586 255.0301 104.8802  1.72972192    57"}}, "geometry": {"type": "Point", "coordinates": [126.4488138730124, 24.71220233885106]}}, {"type": "Feature", "properties": {"norad_id": 67162, "name": "ARIANE 6 R/B", "group": "last-30-days", "lat": 26.782930878852717, "lon": 128.42544951282176, "alt_km": 22915.812116591504, "timestamp": "2025-12-22T05:49:02.190037+00:00", "meta": {"OBJECT_NAME": "ARIANE 6 R/B", "OBJECT_ID": "2025-302C", "EPOCH": "2025-12-19T07:12:31.071168", "MEAN_MOTION": 1.73130298, "ECCENTRICITY": 2.559e-05, "INCLINATION": 54.2437, "RA_OF_ASC_NODE": 107.222, "ARG_OF_PERICENTER": 160.7324, "MEAN_ANOMALY": 199.2296, "EPHEMERIS_TYPE": 0, "CLASSIFICATION_TYPE": "U", "NORAD_CAT_ID": 67162, "ELEMENT_SET_NO": 999, "REV_AT_EPOCH": 8, "BSTAR": 0, "MEAN_MOTION_DOT": -5e-08, "MEAN_MOTION_DDOT": 0}, "tle": {"line1": "1 67162U 25302C   25353.30035962 -.00000005  00000+0  00000+0 0  9994", "line2": "2 67162  54.2437 107.2220 0000255 160.7324 199.2296  1.73130298    88"}}, "geometry": {"type": "Point", "coordinates": [128.42544951282176, 26.782930878852717]}}, {"type": "Feature", "properties": {"norad_id": 67219, "name": "DISKSAT A", "group": "last-30-days", "lat": 14.709015025904625, "lon": -44.53786116769427, "alt_km": 547.2697087984689, "timestamp": "2025-12-22T05:49:02.190048+00:00", "meta": {"OBJECT_NAME": "DISKSAT A", "OBJECT_ID": "2025-305A", "EPOCH": "2025-12-20T09:08:30.149664", "MEAN_MOTION": 15.05762698, "ECCENTRICITY": 0.0003912, "INCLINATION": 45.0057, "RA_OF_ASC_NODE": 310.0654, "ARG_OF_PERICENTER": 276.1097, "MEAN_ANOMALY": 83.9332, "EPHEMERIS_TYPE": 0, "CLASSIFICATION_TYPE": "U", "NORAD_CAT_ID": 67219, "ELEMENT_SET_NO": 999, "REV_AT_EPOCH": 33, "BSTAR": 5.0887e-05, "MEAN_MOTION_DOT": 5.1e-06, "MEAN_MOTION_DDOT": 0}, "tle": {"line1": "1 67219U 25305A   25354.38090451  .00000510  00000+0  50887-4 0  9996", "line2": "2 67219  45.0057 310.0654 0003912 276.1097  83.9332 15.05762698   337"}}, "geometry": {"type": "Point", "coordinates": [-44.53786116769427, 14.709015025904625]}}, {"type": "Feature", "properties": {"norad_id": 67220, "name": "DISKSAT B", "group": "last-30-days", "lat": 14.164617944643421, "lon": -45.13608623735612, "alt_km": 547.8112177600133, "timestamp": "2025-12-22T05:49:02.190066+00:00", "meta": {"OBJECT_NAME": "DISKSAT B", "OBJECT_ID": "2025-305B", "EPOCH": "2025-12-20T05:57:31.803264", "MEAN_MOTION": 15.05702195, "ECCENTRICITY": 0.0004681, "INCLINATION": 45.0108, "RA_OF_ASC_NODE": 310.7693, "ARG_OF_PERICENTER": 270.4757, "MEAN_ANOMALY": 89.5581, "EPHEMERIS_TYPE": 0, "CLASSIFICATION_TYPE": "U", "NORAD_CAT_ID": 67220, "ELEMENT_SET_NO": 999, "REV_AT_EPOCH": 31, "BSTAR": 5.1086e-05, "MEAN_MOTION_DOT": 5.11e-06, "MEAN_MOTION_DDOT": 0}, "tle": {"line1": "1 67220U 25305B   25354.24828476  .00000511  00000+0  51086-4 0  9992", "line2": "2 67220  45.0108 310.7693 0004681 270.4757  89.5581 15.05702195   312"}}, "geometry": {"type": "Point", "coordinates": [-45.13608623735612, 14.164617944643421]}}, {"type": "Feature", "properties": {"norad_id": 67221, "name": "DISKSAT C", "group": "last-30-days", "lat": 13.630362120836066, "lon": -45.72364810771816, "alt_km": 547.3298197494432, "timestamp": "2025-12-22T05:49:02.190076+00:00", "meta": {"OBJECT_NAME": "DISKSAT C", "OBJECT_ID": "2025-305C", "EPOCH": "2025-12-20T07:33:11.308608", "MEAN_MOTION": 15.0565367, "ECCENTRICITY": 0.00043877, "INCLINATION": 45.0067, "RA_OF_ASC_NODE": 310.4143, "ARG_OF_PERICENTER": 282.7791, "MEAN_ANOMALY": 77.2594, "EPHEMERIS_TYPE": 0, "CLASSIFICATION_TYPE": "U", "NORAD_CAT_ID": 67221, "ELEMENT_SET_NO": 999, "REV_AT_EPOCH": 31, "BSTAR": 0.00010190761, "MEAN_MOTION_DOT": 1.256e-05, "MEAN_MOTION_DDOT": 0}, "tle": {"line1": "1 67221U 25305C   25354.31471422  .00001256  00000+0  10191-3 0  9994", "line2": "2 67221  45.0067 310.4143 0004387 282.7791  77.2594 15.05653670   312"}}, "geometry": {"type": "Point", "coordinates": [-45.72364810771816, 13.630362120836066]}}, {"type": "Feature", "properties": {"norad_id": 67222, "name": "DISKSAT D", "group": "last-30-days", "lat": 12.770787647346799, "lon": -46.654011405567125, "alt_km": 547.39526804662, "timestamp": "2025-12-22T05:49:02.190088+00:00", "meta": {"OBJECT_NAME": "DISKSAT D", "OBJECT_ID": "2025-305D", "EPOCH": "2025-12-20T07:33:21.625632", "MEAN_MOTION": 15.05567005, "ECCENTRICITY": 0.00044772, "INCLINATION": 45.0056, "RA_OF_ASC_NODE": 310.415, "ARG_OF_PERICENTER": 287.6101, "MEAN_ANOMALY": 72.4284, "EPHEMERIS_TYPE": 0, "CLASSIFICATION_TYPE": "U", "NORAD_CAT_ID": 67222, "ELEMENT_SET_NO": 999, "REV_AT_EPOCH": 31, "BSTAR": 0.00010184381, "MEAN_MOTION_DOT": 1.252e-05, "MEAN_MOTION_DDOT": 0}, "tle": {"line1": "1 67222U 25305D   25354.31483363  .00001252  00000+0  10184-3 0  9990", "line2": "2 67222  45.0056 310.4150 0004477 287.6101  72.4284 15.05567005   317"}}, "geometry": {"type": "Point", "coordinates": [-46.654011405567125, 12.770787647346799]}}, {"type": "Feature", "properties": {"norad_id": 67223, "name": "ELECTRON KICK STAGE R/B", "group": "last-30-days", "lat": -44.971169016890855, "lon": -150.00629285140786, "alt_km": 466.28167191600915, "timestamp": "2025-12-22T05:49:02.190099+00:00", "meta": {"OBJECT_NAME": "ELECTRON KICK STAGE R/B", "OBJECT_ID": "2025-305E", "EPOCH": "2025-12-20T06:12:15.244992", "MEAN_MOTION": 15.47983126, "ECCENTRICITY": 0.01793228, "INCLINATION": 44.9975, "RA_OF_ASC_NODE": 310.0187, "ARG_OF_PERICENTER": 148.745, "MEAN_ANOMALY": 212.425, "EPHEMERIS_TYPE": 0, "CLASSIFICATION_TYPE": "U", "NORAD_CAT_ID": 67223, "ELEMENT_SET_NO": 999, "REV_AT_EPOCH": 32, "BSTAR": 0.0001630388, "MEAN_MOTION_DOT": 0.00016328, "MEAN_MOTION_DDOT": 0}, "tle": {"line1": "1 67223U 25305E   25354.25850978  .00016328  00000+0  16304-3 0  9994", "line2": "2 67223  44.9975 310.0187 0179322 148.7450 212.4250 15.47983126   320"}}, "geometry": {"type": "Point", "coordinates": [-150.00629285140786, -44.971169016890855]}}]}